NORAD_CAT_ID,OBJECT_NAME,OBJECT_TYPE,EPOCH,MEAN_MOTION,ECCENTRICITY,INCLINATION,RA_OF_ASC_NODE,ARG_OF_PERICENTER,MEAN_ANOMALY,BSTAR,MEAN_MOTION_DOT,MEAN_MOTION_DDOT,TLE_LINE0,TLE_LINE1,TLE_LINE2,SEMIMAJOR_AXIS,PERIOD,APOGEE,PERIGEE,DECAYED
52990.0,STARLINK-4286,PAYLOAD,2022-09-09 14:00:01,15.08848852,0.0001684,53.219,77.2702,59.9292,19.0349,-0.00025959,-4.418e-05,0.0,0 STARLINK-4286,1 52990U 22076E   22252.58334491 -.00004418  00000-0 -25959-3 0  9994,2 52990  53.2190  77.2702 0001684  59.9292  19.0349 15.08848852  1306,6917.853,95.437,540.883,538.553,0.0
52990.0,STARLINK-4286,PAYLOAD,2022-09-09 22:00:00,15.088266099999998,0.0001796,53.219,75.7754,52.3462,38.2262,0.0024240999999999,0.00038489,0.0,0 STARLINK-4286,1 52990U 22076E   22252.91667824  .00038489  00000-0  24241-2 0  9995,2 52990  53.2190  75.7754 0001796  52.3462  38.2262 15.08826610  1301,6917.920999999999,95.438,541.029,538.544,0.0
52990.0,STARLINK-4286,PAYLOAD,2022-09-10 14:00:01,15.08842005,0.0001652,53.2191,72.7809,57.1132,56.6405,-0.00059853,-9.802e-05,0.0,0 STARLINK-4286,1 52990U 22076E   22253.58334491 -.00009802  00000-0 -59853-3 0  9997,2 52990  53.2191  72.7809 0001652  57.1132  56.6405 15.08842005  1307,6917.874,95.437,540.882,538.596,0.0
52990.0,STARLINK-4286,PAYLOAD,2022-09-10 22:00:00,15.08813769,0.0001786,53.2192,71.2861,49.6514,75.7011,0.0031871,0.00050764,0.0,0 STARLINK-4286,1 52990U 22076E   22253.91667824  .00050764  00000-0  31871-2 0  9993,2 52990  53.2192  71.2861 0001786  49.6514  75.7011 15.08813769 10588,6917.9609999999975,95.439,541.061,538.59,0.0
52990.0,STARLINK-4286,PAYLOAD,2022-09-11 14:00:01,15.08877553,0.0001669,53.2197,68.2917,54.5638,93.9776,-0.0037016999999999,-0.00058781,0.0,0 STARLINK-4286,1 52990U 22076E   22254.58334491 -.00058781  00000-0 -37017-2 0  9995,2 52990  53.2197  68.2917 0001669  54.5638  93.9776 15.08877553  1304,6917.766,95.435,540.785,538.476,0.0
52990.0,STARLINK-4286,PAYLOAD,2022-09-11 22:00:00,15.08840794,0.0001855,53.2189,66.7961,46.5297,113.6269,-0.0012,-0.00019336,0.0,0 STARLINK-4286,1 52990U 22076E   22254.91667824 -.00019336  00000-0 -12000-2 0  9999,2 52990  53.2189  66.7961 0001855  46.5297 113.6269 15.08840794  1300,6917.878000000002,95.438,541.026,538.46,0.0
52990.0,STARLINK-4286,PAYLOAD,2022-09-12 06:00:00,15.08847649,0.0001595,53.2202,65.2988,49.7647,121.9806,-0.0009088,-0.00014725,0.0,0 STARLINK-4286,1 52990U 22076E   22255.25001157 -.00014725  00000-0 -90880-3 0  9998,2 52990  53.2202  65.2988 0001595  49.7647 121.9806 15.08847649 10781,6917.857,95.437,540.825,538.619,0.0
52990.0,STARLINK-4286,PAYLOAD,2022-09-12 14:00:01,15.08847461,0.0001595999999999,53.2205,63.8028,49.956,133.3846,-0.0013174,-0.00021197,0.0,0 STARLINK-4286,1 52990U 22076E   22255.58334491 -.00021197  00000-0 -13174-2 0  9995,2 52990  53.2205  63.8028 0001596  49.9560 133.3846 15.08847461  1301,6917.858,95.437,540.827,538.618,0.0
52990.0,STARLINK-4286,PAYLOAD,2022-09-12 22:00:00,15.08812552,0.0001744,53.2206,62.3078,42.7916,152.149,0.0036750999999999,0.00058644,0.0,0 STARLINK-4286,1 52990U 22076E   22255.91667824  .00058644  00000-0  36751-2 0  9992,2 52990  53.2206  62.3078 0001744  42.7916 152.1490 15.08812552  1309,6917.964,95.439,541.036,538.623,0.0
52990.0,STARLINK-4286,PAYLOAD,2022-09-13 06:00:00,15.08847663,0.0001519,53.2209,60.8098,46.3149,160.219,-0.0011264,-0.00018174,0.0,0 STARLINK-4286,1 52990U 22076E   22256.25001157 -.00018174  00000-0 -11264-2 0  9999,2 52990  53.2209  60.8098 0001519  46.3149 160.2190 15.08847663 10932,6917.857,95.437,540.773,538.6709999999998,0.0
52990.0,STARLINK-4286,PAYLOAD,2022-09-13 14:00:01,15.08844216,0.0001541,53.2211,59.3142,46.4006,171.7277,-0.00071178,-0.00011599,0.0,0 STARLINK-4286,1 52990U 22076E   22256.58334491 -.00011599  00000-0 -71178-3 0  9990,2 52990  53.2211  59.3142 0001541  46.4006 171.7277 15.08844216  1301,6917.868,95.437,540.799,538.6659999999998,0.0
52990.0,STARLINK-4286,PAYLOAD,2022-09-13 22:00:00,15.08824758,0.000172,53.221,57.8192,41.4027,188.319,0.00037144,5.626e-05,0.0,0 STARLINK-4286,1 52990U 22076E   22256.91667824  .00005626  00000-0  37144-3 0  9993,2 52990  53.2210  57.8192 0001720  41.4027 188.3190 15.08824758  1302,6917.927,95.439,540.982,538.602,0.0
52990.0,STARLINK-4286,PAYLOAD,2022-09-14 14:00:01,15.08842021,0.0001629999999999,53.2214,54.8259,48.9072,203.9612,-0.0010119999999999,-0.00016359,0.0,0 STARLINK-4286,1 52990U 22076E   22257.58334491 -.00016359  00000-0 -10120-2 0  9999,2 52990  53.2214  54.8259 0001630  48.9072 203.9612 15.08842021 11137,6917.874,95.437,540.867,538.612,0.0
52990.0,STARLINK-4286,PAYLOAD,2022-09-14 22:00:00,15.08820778,0.0001771,53.2211,53.3307,43.57899999999999,220.8826,0.0026223,0.00041671,0.0,0 STARLINK-4286,1 52990U 22076E   22257.91667824  .00041671  00000-0  26223-2 0  9999,2 52990  53.2211  53.3307 0001771  43.5790 220.8826 15.08820778  1304,6917.939,95.439,541.029,538.5790000000002,0.0
52990.0,STARLINK-4286,PAYLOAD,2022-09-15 14:00:01,15.08844185,0.0001740999999999,53.2212,50.3376,51.4802,236.1583,-0.0010445,-0.00016875,0.0,0 STARLINK-4286,1 52990U 22076E   22258.58334491 -.00016875  00000-0 -10445-2 0  9993,2 52990  53.2212  50.3376 0001741  51.4802 236.1583 15.08844185  1305,6917.868,95.437,540.937,538.528,0.0
52990.0,STARLINK-4286,PAYLOAD,2022-09-15 22:00:00,15.08826163,0.0001839,53.2207,48.8423,45.8287,253.403,0.0023914,0.00037962,0.0,0 STARLINK-4286,1 52990U 22076E   22258.91667824  .00037962  00000-0  23914-2 0  9992,2 52990  53.2207  48.8423 0001839  45.8287 253.4030 15.08826163  1301,6917.9230000000025,95.438,541.06,538.515,0.0
52990.0,STARLINK-4286,PAYLOAD,2022-09-16 02:00:01,15.08858436,0.0001764,53.2208,48.0933,48.825,76.1959,-0.0016987999999999,-0.00027237,0.0,0 STARLINK-4286,1 52990U 22076E   22259.08334491 -.00027237  00000-0 -16988-2 0  9991,2 52990  53.2208  48.0933 0001764  48.8250  76.1959 15.08858436 11365,6917.824000000001,95.436,540.909,538.469,0.0
52990.0,STARLINK-4286,PAYLOAD,2022-09-16 14:00:01,15.08840852,0.0001705,53.2208,45.8493,49.5298,272.8935,-0.0013199,-0.00021233,0.0,0 STARLINK-4286,1 52990U 22076E   22259.58334491 -.00021233  00000-0 -13199-2 0  9997,2 52990  53.2208  45.8493 0001705  49.5298 272.8935 15.08840852  1301,6917.878000000002,95.438,540.922,538.563,0.0
52990.0,STARLINK-4286,PAYLOAD,2022-09-16 22:00:00,15.08838654,0.0001815,53.2204,44.3538,44.1857,289.8246,-0.00030163,-5.085e-05,0.0,0 STARLINK-4286,1 52990U 22076E   22259.91667824 -.00005085  00000-0 -30163-3 0  9991,2 52990  53.2204  44.3538 0001815  44.1857 289.8246 15.08838654  1305,6917.885,95.438,541.005,538.494,0.0
52990.0,STARLINK-4286,PAYLOAD,2022-09-17 14:00:01,15.08834115,0.0001868,53.2206,41.3609,51.0025,306.1620000000001,-0.0013599,-0.00021862,0.0,0 STARLINK-4286,1 52990U 22076E   22260.58334491 -.00021862  00000-0 -13599-2 0  9991,2 52990  53.2206  41.3609 0001868  51.0025 306.1620 15.08834115  1302,6917.898,95.438,541.056,538.471,0.0
52990.0,STARLINK-4286,PAYLOAD,2022-09-17 22:00:00,15.08824,0.0001946,53.2204,39.8652,46.0969,322.6436,0.0012513,0.00019674,0.0,0 STARLINK-4286,1 52990U 22076E   22260.91667824  .00019674  00000-0  12513-2 0  9998,2 52990  53.2204  39.8652 0001946  46.0969 322.6436 15.08824000  1308,6917.929,95.439,541.141,538.448,0.0
52990.0,STARLINK-4286,PAYLOAD,2022-09-18 06:00:00,15.08812761,0.0001806,53.2198,38.3672,52.0831,328.2532,0.0035406,0.0005647,0.0,0 STARLINK-4286,1 52990U 22076E   22261.25001157  .00056470  00000-0  35406-2 0  9998,2 52990  53.2198  38.3672 0001806  52.0831 328.2532 15.08812761 11688,6917.964,95.439,541.078,538.5790000000002,0.0
52990.0,STARLINK-4286,PAYLOAD,2022-09-18 14:00:01,15.08859726,0.0001961,53.2193,36.8722,49.8378,342.1444,-0.0011925,-0.00019227,0.0,0 STARLINK-4286,1 52990U 22076E   22261.58335648 -.00019227  00000-0 -11925-2 0  9990,2 52990  53.2193  36.8722 0001961  49.8378 342.1444 15.08859726  1301,6917.82,95.436,541.0419999999998,538.3290000000002,0.0
52990.0,STARLINK-4286,PAYLOAD,2022-09-18 22:00:00,15.08867978,0.000199,53.2186,35.3763,44.2038,359.3268,-0.0019704,-0.00031535,0.0,0 STARLINK-4286,1 52990U 22076E   22261.91667824 -.00031535  00000-0 -19704-2 0  9990,2 52990  53.2186  35.3763 0001990  44.2038 359.3268 15.08867978 11781,6917.795,95.436,541.0369999999998,538.283,0.0
52990.0,STARLINK-4286,PAYLOAD,2022-09-19 14:00:01,15.08860344,0.0001906,53.2192,32.3833,45.152,21.5888,-0.0036676,-0.0005822,0.0,0 STARLINK-4286,1 52990U 22076E   22262.58334491 -.00058220  00000-0 -36676-2 0  9992,2 52990  53.2192  32.3833 0001906  45.1520  21.5888 15.08860344  1309,6917.818,95.436,541.002,538.365,0.0
52990.0,STARLINK-4286,PAYLOAD,2022-09-19 22:00:00,15.08833893,0.000194,53.2192,30.8871,40.4598,37.8741,0.00056529,8.719e-05,0.0,0 STARLINK-4286,1 52990U 22076E   22262.91667824  .00008719  00000-0  56529-3 0  9994,2 52990  53.2192  30.8871 0001940  40.4598  37.8741 15.08833893 11932,6917.899,95.438,541.106,538.422,0.0
52990.0,STARLINK-4286,PAYLOAD,2022-09-20 14:00:01,15.08848827,0.0001873,53.2196,27.8943,42.0271,59.5071,-0.00217,-0.00034667,0.0,0 STARLINK-4286,1 52990U 22076E   22263.58334491 -.00034667  00000-0 -21700-2 0  9994,2 52990  53.2196  27.8943 0001873  42.0271  59.5071 15.08848827  1303,6917.853,95.437,541.014,538.423,0.0
52990.0,STARLINK-4286,PAYLOAD,2022-09-20 22:00:01,15.088537,0.0001942,53.2195,26.398000000000003,39.4054,73.7749,-0.0026766999999999,-0.00042653,0.0,0 STARLINK-4286,1 52990U 22076E   22263.91668981 -.00042653  00000-0 -26767-2 0  9997,2 52990  53.2195  26.3980 0001942  39.4054  73.7749 15.08853700 12097,6917.839,95.437,541.047,538.36,0.0
52990.0,STARLINK-4286,PAYLOAD,2022-09-21 14:00:01,15.08832915,0.0001959,53.2199,23.4055,43.923,92.3626,-0.00056951,-9.339e-05,0.0,0 STARLINK-4286,1 52990U 22076E   22264.58334491 -.00009339  00000-0 -56951-3 0  9990,2 52990  53.2199  23.4055 0001959  43.9230  92.3626 15.08832915 12193,6917.901999999999,95.438,541.122,538.4119999999998,0.0
